[{"OBJECT_NAME":"EOSSAT-1","OBJECT_ID":"2023-001AW","EPOCH":"2026-03-09T17:40:07.010400","MEAN_MOTION":15.32339828,"ECCENTRICITY":0.00112629,"INCLINATION":97.3357,"RA_OF_ASC_NODE":130.2294,"ARG_OF_PERICENTER":110.3168,"MEAN_ANOMALY":249.9285,"EPHEMERIS_TYPE":0,"CLASSIFICATION_TYPE":"U","NORAD_CAT_ID":55053,"ELEMENT_SET_NO":999,"REV_AT_EPOCH":17668,"BSTAR":0.00024844399,"MEAN_MOTION_DOT":7.695e-5,"MEAN_MOTION_DDOT":0},{"OBJECT_NAME":"STARLINK-35556","OBJECT_ID":"2025-245E","EPOCH":"2026-03-09T21:04:53.580288","MEAN_MOTION":15.30208156,"ECCENTRICITY":8.233e-5,"INCLINATION":53.157,"RA_OF_ASC_NODE":283.1486,"ARG_OF_PERICENTER":86.5771,"MEAN_ANOMALY":273.5323,"EPHEMERIS_TYPE":0,"CLASSIFICATION_TYPE":"U","NORAD_CAT_ID":66238,"ELEMENT_SET_NO":999,"REV_AT_EPOCH":2128,"BSTAR":0.00086742047,"MEAN_MOTION_DOT":0.00025426,"MEAN_MOTION_DDOT":0}]
